49P/Arend-Rigaux,e,19.0588,118.7925,332.9352,3.570062,0.1461136,0.59907078,352.3114,02/17.0/2025,2000,g 11.3,4.4
# From MPEC 2025-CE3
50P/Arend,e,19.0994,355.1467,49.3250,4.087726,0.1192563,0.52980298,33.4300,02/17.0/2025,2000,g  9.5,6.0
# From MPEC 2025-CE3
60P/Tsuchinshan,e,3.5798,267.3972,216.9331,3.530180,0.1485966,0.53386770,337.1698,02/17.0/2025,2000,g 11.5,6.0
# From MPEC 2025-CE3
62P/Tsuchinshan,e,4.7373,68.6663,47.3229,3.370716,0.1592652,0.62469910,66.8636,02/17.0/2025,2000,g  8.0,10.0
# From MPEC 2025-CE3
74P/Smirnova-Chernykh,e,6.2934,53.4850,78.8143,4.989287,0.0884395,0.03660753,303.8983,02/17.0/2025,2000,g  5.0,6.0
# From MPEC 2025-CE3
88P/Howell,e,4.3820,56.6682,235.8882,3.108111,0.1798702,0.56318589,288.9840,02/17.0/2025,2000,g 11.0,6.0
# From MPEC 2025-CE3
89P/Russell,e,12.0721,41.3443,250.4084,3.750601,0.1356916,0.40754628,44.4259,02/17.0/2025,2000,g 11.5,6.0
# From MPEC 2025-CE3
103P/Hartley,e,13.6094,219.7533,181.3231,3.475389,0.1521244,0.69359770,75.0778,02/17.0/2025,2000,g  8.5,8.0
# From MPEC 2025-CE3
130P/McNaught-Hughes,e,6.0630,70.1804,246.2021,3.383953,0.1583316,0.46106213,48.7597,02/17.0/2025,2000,g 10.0,6.0
# From MPEC 2025-CE3
136P/Mueller,e,9.4275,137.4229,225.2963,4.185105,0.1151183,0.29311419,5.1391,02/17.0/2025,2000,g 11.0,4.0
# From MPEC 2025-CE3
146P/Shoemaker-LINEAR,e,23.1201,53.3700,317.0678,4.027347,0.1219482,0.64758313,23.8487,02/17.0/2025,2000,g 15.0,4.0
# From MPEC 2025-CE3
154P/Brewington,e,17.6360,342.9989,47.9461,4.797816,0.0937862,0.67636837,23.3294,02/17.0/2025,2000,g  2.5,12.0
# From MPEC 2025-CE3
158P/Kowal-LINEAR,e,7.4101,124.7847,226.3437,5.656010,0.0732721,0.11805097,67.5306,02/17.0/2025,2000,g  9.0,4.0
# From MPEC 2025-CE3
170P/Christensen,e,10.1257,142.6446,224.8390,4.196818,0.1146367,0.30523079,77.1366,02/17.0/2025,2000,g 12.0,4.0
# From MPEC 2025-CE3
172P/Yeung,e,11.2238,30.8821,208.9174,4.222752,0.1135823,0.20476613,330.6209,02/17.0/2025,2000,g 13.0,4.0
# From MPEC 2025-CE3
195P/Hill,e,36.4192,243.1051,250.5364,6.449772,0.0601710,0.31148066,349.8244,02/17.0/2025,2000,g  8.5,4.0
# From MPEC 2025-CE3
208P/McMillan,e,4.4122,36.3356,310.7170,4.038856,0.1214273,0.37388158,21.4874,02/17.0/2025,2000,g 12.5,4.0
# From MPEC 2025-CE3
217P/LINEAR,e,12.8654,125.3716,247.0353,3.944483,0.1258111,0.68909191,347.8035,02/17.0/2025,2000,g 12.0,4.0
# From MPEC 2025-CE3
219P/LINEAR,e,11.5335,230.9481,107.7991,3.652392,0.1412011,0.35501344,52.0374,02/17.0/2025,2000,g 11.0,4.0
# From MPEC 2025-CE3
229P/Gibbs,e,26.0973,157.8839,224.2109,3.922913,0.1268502,0.37791913,357.8731,02/17.0/2025,2000,g 13.0,4.0
# From MPEC 2025-CE3
235P/LINEAR,e,9.8129,200.2078,352.0777,3.449359,0.1538496,0.42642766,312.5463,02/17.0/2025,2000,g 12.0,4.0
# From MPEC 2025-CE3
237P/LINEAR,e,14.0158,245.3546,25.4795,3.515318,0.1495399,0.43319634,96.3505,02/17.0/2025,2000,g 14.5,2.0
# From MPEC 2025-CE3
242P/Spahr,e,32.4264,180.2840,244.9282,5.537328,0.0756404,0.28275631,4.2178,02/17.0/2025,2000,g  8.0,4.0
# From MPEC 2025-CE3
253P/PANSTARRS,e,4.9440,146.8569,230.8342,3.463816,0.1528874,0.41486736,18.1920,02/17.0/2025,2000,g 14.5,4.0
# From MPEC 2025-CE3
268P/Bernardi,e,15.6613,125.6320,0.0135,4.591677,0.1001722,0.47456232,6.0631,02/17.0/2025,2000,g 14.0,4.0
# From MPEC 2025-CE3
276P/Vorobjov,e,14.7925,211.3221,199.2809,5.356559,0.0795015,0.27216560,5.4232,02/17.0/2025,2000,g 11.5,4.0
# From MPEC 2025-CE3
294P/LINEAR,e,17.7406,309.6045,237.5691,3.191599,0.1728588,0.60110527,329.7192,02/17.0/2025,2000,g 15.5,4.0
# From MPEC 2025-CE3
305P/Skiff,e,11.6715,240.1045,147.4200,4.637408,0.0986941,0.69409388,9.0647,02/17.0/2025,2000,g 18.0,4.0
# From MPEC 2025-CE3
323P/SOHO,e,5.2104,323.9530,353.3217,2.440225,0.2585587,0.98344349,0.0000,03/14.2305/2025,2000,g 20.0,4.0
# From MPEC 2025-CE3
333P/LINEAR,e,132.0224,115.7064,26.0173,4.220275,0.1136823,0.73628600,9.0608,02/17.0/2025,2000,g 15.0,4.0
# From MPEC 2025-CE3
338P/McNaught,e,25.3790,9.7774,4.6183,3.895426,0.1281952,0.41266577,25.3403,02/17.0/2025,2000,g 12.0,4.0
# From MPEC 2025-CE3
382P/Larson,e,8.2616,170.6368,162.2413,5.899387,0.0687850,0.26690954,82.6242,02/17.0/2025,2000,g  8.0,4.0
# From MPEC 2025-CE3
384P/Kowalski,e,7.2836,354.1899,37.7114,2.898041,0.1997778,0.61629336,30.1398,02/17.0/2025,2000,g 19.5,4.0
# From MPEC 2025-CE3
404P/Bressi,e,9.8043,260.0418,169.0942,4.720474,0.0961005,0.12452102,45.4850,02/17.0/2025,2000,g 10.0,4.0
# From MPEC 2025-CE3
408P/Novichonok-Gerke,e,19.3532,189.4498,226.6721,4.745327,0.0953465,0.26851942,82.4692,02/17.0/2025,2000,g 11.0,4.0
# From MPEC 2025-CE3
450P/LONEOS,e,10.6169,124.4710,22.6056,7.955529,0.0439239,0.31395475,328.9335,02/17.0/2025,2000,g  6.5,4.0
# From MPEC 2025-CE3
456P/PANSTARRS,e,16.9668,243.1522,233.0387,3.171521,0.1745029,0.11643728,350.0334,02/17.0/2025,2000,g 13.5,4.0
# From MPEC 2025-CE3
470P/PANSTARRS,e,8.8443,246.1734,151.7450,4.466336,0.1044184,0.38955836,44.6911,02/17.0/2025,2000,g 15.5,4.0
# From MPEC 2025-CE3
472P/NEAT-LINEAR,e,10.8243,205.8936,218.8760,7.798647,0.0452559,0.56550976,9.8381,02/17.0/2025,2000,g 10.5,4.0
# From MPEC 2025-CE3
476P/PANSTARRS,e,19.0053,57.0528,46.7336,4.777083,0.0943974,0.34617763,11.6567,02/17.0/2025,2000,g 12.5,4.0
# From MPEC 2025-CE3
487P/SidingSpring,e,39.3670,49.2082,0.8568,5.165150,0.0839614,0.64862307,10.0223,02/17.0/2025,2000,g 13.5,4.0
# From MPEC 2025-CE3
492P/LINEAR,e,11.4004,11.3087,40.9925,5.762814,0.0712446,0.69076254,15.0693,02/17.0/2025,2000,g 15.0,4.0
# From MPEC 2025-CE3
496P/Hill,e,14.8146,63.5878,42.2481,6.103039,0.0653710,0.73438675,358.6086,02/17.0/2025,2000,g 14.0,4.0
# From MPC107687
1I/`Oumuamua,h,09/09.4886/2017,122.6778,24.5997,241.6845,1.199252,0.255240,2000,23.0,2.0
# From MPEC 2023-L37
2I/Borisov,h,12/08.5548/2019,44.0527,308.1480,209.1251,3.356633,2.006548,2000,11.0,4.0
